{
    "links": {
        "self": "http://www.neowsapp.com/rest/v1/neo/3763430?api_key=iIulBulltgU6a56xZRHN4H3l9WmuAYTsLGpBGhQ2"
    },
    "id": "3763430",
    "neo_reference_id": "3763430",
    "name": "(2016 VX2)",
    "designation": "2016 VX2",
    "nasa_jpl_url": "http://ssd.jpl.nasa.gov/sbdb.cgi?sstr=3763430",
    "absolute_magnitude_h": 25.7,
    "estimated_diameter": {
        "kilometers": {
            "estimated_diameter_min": 0.0192555078,
            "estimated_diameter_max": 0.0430566244
        },
        "meters": {
            "estimated_diameter_min": 19.2555078188,
            "estimated_diameter_max": 43.0566244241
        },
        "miles": {
            "estimated_diameter_min": 0.0119648141,
            "estimated_diameter_max": 0.0267541378
        },
        "feet": {
            "estimated_diameter_min": 63.1742402722,
            "estimated_diameter_max": 141.2618956756
        }
    },
    "is_potentially_hazardous_asteroid": false,
    "close_approach_data": [
        {
            "close_approach_date": "2011-09-25",
            "close_approach_date_full": "2011-Sep-25 10:43",
            "epoch_date_close_approach": 1316947380000,
            "relative_velocity": {
                "kilometers_per_second": "11.9618576403",
                "kilometers_per_hour": "43062.6875050602",
                "miles_per_hour": "26757.4793555748"
            },
            "miss_distance": {
                "astronomical": "0.2989154241",
                "lunar": "116.2780999749",
                "kilometers": "44717110.755506667",
                "miles": "27785924.1730473246"
            },
            "orbiting_body": "Earth"
        },
        {
            "close_approach_date": "2016-11-05",
            "close_approach_date_full": "2016-Nov-05 15:41",
            "epoch_date_close_approach": 1478360460000,
            "relative_velocity": {
                "kilometers_per_second": "6.8368782529",
                "kilometers_per_hour": "24612.761710512",
                "miles_per_hour": "15293.4129639567"
            },
            "miss_distance": {
                "astronomical": "0.0291324479",
                "lunar": "11.3325222331",
                "kilometers": "4358152.153725973",
                "miles": "2708030.1752975074"
            },
            "orbiting_body": "Earth"
        },
        {
            "close_approach_date": "2021-12-07",
            "close_approach_date_full": "2021-Dec-07 07:19",
            "epoch_date_close_approach": 1638861540000,
            "relative_velocity": {
                "kilometers_per_second": "15.2418397589",
                "kilometers_per_hour": "54870.6231322042",
                "miles_per_hour": "34094.4713567854"
            },
            "miss_distance": {
                "astronomical": "0.3817437202",
                "lunar": "148.4983071578",
                "kilometers": "57108047.427795974",
                "miles": "35485295.1966294812"
            },
            "orbiting_body": "Earth"
        },
        {
            "close_approach_date": "2070-09-22",
            "close_approach_date_full": "2070-Sep-22 08:20",
            "epoch_date_close_approach": 3178599600000,
            "relative_velocity": {
                "kilometers_per_second": "12.9973119696",
                "kilometers_per_hour": "46790.323090538",
                "miles_per_hour": "29073.6871447846"
            },
            "miss_distance": {
                "astronomical": "0.3331953234",
                "lunar": "129.6129808026",
                "kilometers": "49845310.674601158",
                "miles": "30972439.8420776604"
            },
            "orbiting_body": "Earth"
        },
        {
            "close_approach_date": "2071-01-03",
            "close_approach_date_full": "2071-Jan-03 19:57",
            "epoch_date_close_approach": 3187540620000,
            "relative_velocity": {
                "kilometers_per_second": "3.3645139874",
                "kilometers_per_hour": "12112.2503544719",
                "miles_per_hour": "7526.0813383106"
            },
            "miss_distance": {
                "astronomical": "0.4148548091",
                "lunar": "161.3785207399",
                "kilometers": "62061395.800616617",
                "miles": "38563163.1528666346"
            },
            "orbiting_body": "Earth"
        }
    ],
    "orbital_data": {
        "orbit_id": "5",
        "orbit_determination_date": "2017-04-06 08:22:21",
        "first_observation_date": "2016-11-07",
        "last_observation_date": "2016-11-28",
        "data_arc_in_days": 21,
        "observations_used": 31,
        "orbit_uncertainty": "8",
        "minimum_orbit_intersection": ".0273584",
        "jupiter_tisserand_invariant": "4.657",
        "epoch_osculation": "2457703.5",
        "eccentricity": ".2816966297066674",
        "semi_major_axis": "1.416929376624993",
        "inclination": "10.47613204638459",
        "ascending_node_longitude": "223.6137174226429",
        "orbital_period": "616.0567686211066",
        "perihelion_distance": "1.017785146697363",
        "perihelion_argument": "173.7021150526962",
        "aphelion_distance": "1.816073606552623",
        "perihelion_time": "2457693.022416796244",
        "mean_anomaly": "6.122698662648751",
        "mean_motion": ".5843617314777216",
        "equinox": "J2000",
        "orbit_class": {
            "orbit_class_type": "AMO",
            "orbit_class_description": "Near-Earth asteroid orbits similar to that of 1221 Amor",
            "orbit_class_range": "1.017 AU < q (perihelion) < 1.3 AU"
        }
    },
    "is_sentry_object": false
}